{"type": "FeatureCollection", "features": [{"id": "0", "type": "Feature", "properties": {"name": "2-\u0580\u0564 \u0583\u0578\u0572\u0578\u0581", "name_hy": "2-\u0580\u0564 \u0583\u0578\u0572\u0578\u0581", "name_en": "2nd street", "name_ru": "2-\u044f \u0443\u043b\u0438\u0446\u0430", "sity_id": 10}, "geometry": {"type": "LineString", "coordinates": [[43.7749567, 40.7720874], [43.7754562, 40.7700947], [43.7756608, 40.7695764], [43.7758262, 40.7690892], [43.7758609, 40.7690081], [43.7759853, 40.7687849], [43.7762393, 40.7680509], [43.7763732, 40.7677274], [43.7764297, 40.7674939], [43.7764272, 40.7673385], [43.7764385, 40.7672017], [43.7764688, 40.7671232], [43.7765318, 40.7670531], [43.7766092, 40.7669641], [43.7767142, 40.7668855], [43.7768362, 40.7668225], [43.7768993, 40.7667474], [43.776933, 40.7666929], [43.776967, 40.7664797], [43.7770347, 40.7662995], [43.777079, 40.7662294], [43.777139, 40.766173], [43.7772902, 40.7660428], [43.7773519, 40.7659577], [43.7773673, 40.7659003], [43.7773632, 40.7658506]]}}, {"id": "1", "type": "Feature", "properties": {"name": "\u054f-7-32", "name_hy": "\u0549\u0561\u0580\u0565\u0576\u0581\u056b \u0583\u0578\u0572\u0578\u0581", "name_en": "Highway T-7-32", "name_ru": null, "sity_id": 5}, "geometry": {"type": "LineString", "coordinates": [[43.7798812, 40.8390987], [43.7825743, 40.8391272], [43.783601, 40.8391636], [43.7842395, 40.8391785], [43.7850853, 40.8391717], [43.7868092, 40.8391231]]}}, {"id": "2", "type": "Feature", "properties": {"name": "\u0535\u0572\u056b\u0577\u0565 \u0549\u0561\u0580\u0565\u0576\u0581\u056b \u0583\u0578\u0572\u0578\u0581", "name_hy": "\u0535\u0572\u056b\u0577\u0565 \u0549\u0561\u0580\u0565\u0576\u0581\u056b \u0583\u0578\u0572\u0578\u0581", "name_en": "Yeghishe Charents street", "name_ru": "\u0443\u043b\u0438\u0446\u0430 \u0415\u0433\u0438\u0448\u0435 \u0427\u0430\u0440\u0435\u043d\u0446\u0430", "sity_id": 3}, "geometry": {"type": "LineString", "coordinates": [[43.8888008, 40.7808272], [43.889353, 40.782292], [43.8902636, 40.7843712]]}}, {"id": "3", "type": "Feature", "properties": {"name": "\u054b\u0580\u0561\u0577\u056b\u0576\u0561\u0580\u0561\u0580\u0576\u0565\u0580\u056b \u0583\u0578\u0572\u0578\u0581", "name_hy": "\u054b\u0580\u0561\u0577\u056b\u0576\u0561\u0580\u0561\u0580\u0576\u0565\u0580\u056b \u0583\u0578\u0572\u0578\u0581", "name_en": null, "name_ru": "\u0443\u043b\u0438\u0446\u0430 \u0432\u043e\u0434\u043d\u044b\u0445 \u0441\u0442\u0440\u043e\u0438\u0442\u0435\u043b\u0435\u0439", "sity_id": 3}, "geometry": {"type": "LineString", "coordinates": [[43.8817543, 40.7804536], [43.8822769, 40.780925], [43.88315, 40.7817088], [43.8832602, 40.7818046], [43.8847543, 40.7831011], [43.8855161, 40.7837566]]}}, {"id": "4", "type": "Feature", "properties": {"name": "2-\u0580\u0564 \u0583\u0578\u0572\u0578\u0581", "name_hy": "2-\u0580\u0564 \u0583\u0578\u0572\u0578\u0581", "name_en": "2nd street", "name_ru": "2-\u044f \u0443\u043b\u0438\u0446\u0430", "sity_id": 3}, "geometry": {"type": "LineString", "coordinates": [[43.8945184, 40.7811326], [43.8945431, 40.7806462], [43.8946027, 40.7794691], [43.8945544, 40.7786769]]}}, {"id": "5", "type": "Feature", "properties": {"name": "\u0547\u056b\u0580\u0561\u056f\u056b \u056d\u0573\u0578\u0582\u0572\u056b", "name_hy": "\u0547\u056b\u0580\u0561\u056f\u056b \u056d\u0573\u0578\u0582\u0572\u056b", "name_en": "Shirak highway", "name_ru": "\u0428\u0438\u0440\u0430\u043a\u0441\u043a\u043e\u0435 \u0448\u043e\u0441\u0441\u0435", "sity_id": 3}, "geometry": {"type": "LineString", "coordinates": [[43.8885252, 40.7808266], [43.8886052, 40.781037], [43.8887087, 40.7812817], [43.8891631, 40.7823571], [43.8900314, 40.7843555], [43.890067, 40.7844206]]}}, {"id": "6", "type": "Feature", "properties": {"name": "\u0531\u056d\u0578\u0582\u0580\u0575\u0561\u0576 \u056d\u0573\u0578\u0582\u0572\u056b", "name_hy": "\u0531\u056d\u0578\u0582\u0580\u0575\u0561\u0576 \u056d\u0573\u0578\u0582\u0572\u056b", "name_en": "Akhuryan highway", "name_ru": "\u0448\u043e\u0441\u0441\u0435 \u0410\u0445\u0443\u0440\u044f\u043d", "sity_id": 3}, "geometry": {"type": "LineString", "coordinates": [[43.8888008, 40.7808272], [43.8900385, 40.7808833], [43.8905579, 40.7809263], [43.8908205, 40.7809393], [43.8911198, 40.7809607], [43.8915286, 40.78099], [43.8924793, 40.781058], [43.8927962, 40.7810663], [43.8933849, 40.7810817], [43.8945184, 40.7811326], [43.8950405, 40.7811441], [43.8961573, 40.781202], [43.8968269, 40.7812367], [43.8987476, 40.7813244], [43.8989622, 40.7813342], [43.8993353, 40.7813513], [43.9000671, 40.7809849], [43.9009365, 40.7804397], [43.9012506, 40.7802609]]}}, {"id": "7", "type": "Feature", "properties": {"name": "\u0544\u056b\u0576\u0561\u057d \u0531\u057e\u0565\u057f\u056b\u057d\u0575\u0561\u0576 \u0583\u0578\u0572\u0578\u0581", "name_hy": "\u0544\u056b\u0576\u0561\u057d \u0531\u057e\u0565\u057f\u056b\u057d\u0575\u0561\u0576 \u0583\u0578\u0572\u0578\u0581", "name_en": "Minas Avetisyan street", "name_ru": "\u0443\u043b\u0438\u0446\u0430 \u041c\u0438\u043d\u0430\u0441\u0430 \u0410\u0432\u0435\u0442\u0438\u0441\u044f\u043d\u0430", "sity_id": 3}, "geometry": {"type": "LineString", "coordinates": [[43.8827419, 40.7800621], [43.8832933, 40.7800833], [43.8850701, 40.7801515], [43.887017, 40.7802417], [43.8876986, 40.7802733], [43.88794, 40.780318]]}}, {"id": "8", "type": "Feature", "properties": {"name": "\u0534\u0561\u057e\u0569\u0575\u0561\u0576-\u053d\u0561\u0576\u0561\u0575\u0561\u0576 \u0583\u0578\u0572\u0578\u0581", "name_hy": "\u0534\u0561\u057e\u0569\u0575\u0561\u0576-\u053d\u0561\u0576\u0561\u0575\u0561\u0576 \u0583\u0578\u0572\u0578\u0581", "name_en": "Davtyan-Khanayan street", "name_ru": "\u0443\u043b\u0438\u0446\u0430 \u041e\u0433. \u0414\u0430\u0432\u0442\u044f\u043d-\u0425\u0430\u043d\u0430\u044f\u043d", "sity_id": 3}, "geometry": {"type": "LineString", "coordinates": [[43.9012506, 40.7802609], [43.9019599, 40.7795941], [43.9022914, 40.7792825], [43.9025289, 40.7790647], [43.9032262, 40.7784251], [43.9036125, 40.778082], [43.904205, 40.7774451]]}}, {"id": "9", "type": "Feature", "properties": {"name": "\u053f\u0561\u057c\u0576\u0578\u0582\u057f\u056b \u200b\u200b\u0574\u0561\u0575\u0580\u0578\u0582\u0572\u056b", "name_hy": "\u053f\u0561\u057c\u0576\u0578\u0582\u057f\u056b \u200b\u200b\u0574\u0561\u0575\u0580\u0578\u0582\u0572\u056b", "name_en": "Karnut highway", "name_ru": "\u0428\u043e\u0441\u0441\u0435 \u041a\u0430\u0440\u043d\u0443\u0442\u0430", "sity_id": 3}, "geometry": {"type": "LineString", "coordinates": [[43.9012506, 40.7802609], [43.9025243, 40.7801153], [43.9031251, 40.7800467], [43.9044908, 40.779827], [43.9055407, 40.7797199], [43.9056561, 40.7797113], [43.9060101, 40.7797148], [43.9066016, 40.7796707], [43.9070872, 40.7795656], [43.9074653, 40.7794838], [43.9088257, 40.7792524], [43.909257, 40.7791791], [43.9093002, 40.7791769], [43.9101923, 40.7791322], [43.9102739, 40.7791253]]}}, {"id": "10", "type": "Feature", "properties": {"name": "1-\u056b\u0576 \u0583\u0578\u0572\u0578\u0581", "name_hy": "1-\u056b\u0576 \u0583\u0578\u0572\u0578\u0581", "name_en": "1st street", "name_ru": "1-\u044f \u0443\u043b\u0438\u0446\u0430", "sity_id": 6}, "geometry": {"type": "LineString", "coordinates": [[43.869623, 40.8415502], [43.8695453, 40.8409083], [43.8695805, 40.8408024], [43.8696529, 40.8406887], [43.8698779, 40.8405532], [43.8700711, 40.8405085], [43.8707392, 40.8404716], [43.8718815, 40.8404335], [43.8725033, 40.8403884], [43.8730307, 40.8403322], [43.8734104, 40.8402671], [43.8741131, 40.8401291], [43.8744323, 40.8400699]]}}, {"id": "11", "type": "Feature", "properties": {"name": "5-\u0580\u0564 \u0583\u0578\u0572\u0578\u0581", "name_hy": "5-\u0580\u0564 \u0583\u0578\u0572\u0578\u0581", "name_en": "5th street", "name_ru": "5-\u044f \u0443\u043b\u0438\u0446\u0430", "sity_id": 6}, "geometry": {"type": "LineString", "coordinates": [[43.8665698, 40.8446501], [43.8673533, 40.8445505], [43.8686139, 40.8444633], [43.8694357, 40.8444419], [43.8699522, 40.8444285], [43.8710256, 40.8444229], [43.8710973, 40.8444225], [43.8730149, 40.8443331], [43.8751123, 40.8442295]]}}, {"id": "12", "type": "Feature", "properties": {"name": "6-\u0580\u0564 \u0583\u0578\u0572\u0578\u0581", "name_hy": "6-\u0580\u0564 \u0583\u0578\u0572\u0578\u0581", "name_en": "6th street", "name_ru": "6-\u044f \u0443\u043b\u0438\u0446\u0430", "sity_id": 6}, "geometry": {"type": "LineString", "coordinates": [[43.8665791, 40.8453794], [43.867147, 40.8453838], [43.8683522, 40.8453419], [43.8699529, 40.8453726], [43.8709602, 40.8453919], [43.8710757, 40.8453482], [43.8712142, 40.8453206], [43.8722052, 40.8452549], [43.8725117, 40.8452108], [43.8730704, 40.8451721], [43.8752128, 40.8452027]]}}, {"id": "13", "type": "Feature", "properties": {"name": "4-\u0580\u0564 \u0583\u0578\u0572\u0578\u0581", "name_hy": "4-\u0580\u0564 \u0583\u0578\u0572\u0578\u0581", "name_en": "4th street", "name_ru": "4-\u044f \u0443\u043b\u0438\u0446\u0430", "sity_id": 6}, "geometry": {"type": "LineString", "coordinates": [[43.8712176, 40.8431244], [43.8714776, 40.8433238], [43.872262, 40.8433565], [43.8730815, 40.8433435], [43.8751304, 40.8433714], [43.8756361, 40.8433409], [43.8766192, 40.8433238]]}}, {"id": "14", "type": "Feature", "properties": {"name": "3-\u0580\u0564 \u0583\u0578\u0572\u0578\u0581", "name_hy": "3-\u0580\u0564 \u0583\u0578\u0572\u0578\u0581", "name_en": "3rd street", "name_ru": "3-\u044f \u0443\u043b\u0438\u0446\u0430", "sity_id": 6}, "geometry": {"type": "LineString", "coordinates": [[43.8710778, 40.8424465], [43.8715099, 40.8424872], [43.8716126, 40.8424717], [43.8717315, 40.8424331], [43.8720554, 40.8423834], [43.8723113, 40.8423638], [43.8726166, 40.8423404], [43.8730295, 40.8423586], [43.8733006, 40.8423506], [43.8739842, 40.8423194], [43.8751668, 40.8421936], [43.8756448, 40.8421196], [43.8764302, 40.8421137]]}}, {"id": "15", "type": "Feature", "properties": {"name": "4-\u0580\u0564 \u0583\u0578\u0572\u0578\u0581", "name_hy": "4-\u0580\u0564 \u0583\u0578\u0572\u0578\u0581", "name_en": "4th street", "name_ru": "4-\u044f \u0443\u043b\u0438\u0446\u0430", "sity_id": 6}, "geometry": {"type": "LineString", "coordinates": [[43.8685556, 40.843469], [43.8703339, 40.8433696], [43.8705324, 40.8433595], [43.870645, 40.8432966], [43.8707472, 40.8432718], [43.8709374, 40.8432357], [43.8711083, 40.8431957]]}}, {"id": "16", "type": "Feature", "properties": {"name": "2-\u0580\u0564 \u0583\u0578\u0572\u0578\u0581", "name_hy": "2-\u0580\u0564 \u0583\u0578\u0572\u0578\u0581", "name_en": "2nd street", "name_ru": "2-\u044f \u0443\u043b\u0438\u0446\u0430", "sity_id": 6}, "geometry": {"type": "LineString", "coordinates": [[43.869623, 40.8415502], [43.8711316, 40.8414773], [43.8722655, 40.8414225], [43.8735796, 40.8413153], [43.8737197, 40.8413039], [43.8748729, 40.8412162]]}}, {"id": "17", "type": "Feature", "properties": {"name": "2-\u0580\u0564 \u0583\u0578\u0572\u0578\u0581", "name_hy": "2-\u0580\u0564 \u0583\u0578\u0572\u0578\u0581", "name_en": "2nd street", "name_ru": "2-\u044f \u0443\u043b\u0438\u0446\u0430", "sity_id": 6}, "geometry": {"type": "LineString", "coordinates": [[43.8666697, 40.8417138], [43.8667992, 40.8416858], [43.8683841, 40.8416309], [43.869623, 40.8415502]]}}, {"id": "18", "type": "Feature", "properties": {"name": "None", "name_hy": null, "name_en": null, "name_ru": null, "sity_id": 2}, "geometry": null}, {"id": "19", "type": "Feature", "properties": {"name": "None", "name_hy": null, "name_en": null, "name_ru": null, "sity_id": 3}, "geometry": null}, {"id": "20", "type": "Feature", "properties": {"name": "None", "name_hy": null, "name_en": null, "name_ru": null, "sity_id": 4}, "geometry": null}, {"id": "21", "type": "Feature", "properties": {"name": "None", "name_hy": null, "name_en": null, "name_ru": null, "sity_id": 5}, "geometry": null}, {"id": "22", "type": "Feature", "properties": {"name": "None", "name_hy": null, "name_en": null, "name_ru": null, "sity_id": 6}, "geometry": null}, {"id": "23", "type": "Feature", "properties": {"name": "None", "name_hy": null, "name_en": null, "name_ru": null, "sity_id": 7}, "geometry": null}, {"id": "24", "type": "Feature", "properties": {"name": "None", "name_hy": null, "name_en": null, "name_ru": null, "sity_id": 8}, "geometry": null}, {"id": "25", "type": "Feature", "properties": {"name": "None", "name_hy": null, "name_en": null, "name_ru": null, "sity_id": 9}, "geometry": null}, {"id": "26", "type": "Feature", "properties": {"name": "None", "name_hy": null, "name_en": null, "name_ru": null, "sity_id": 10}, "geometry": null}, {"id": "27", "type": "Feature", "properties": {"name": "None", "name_hy": null, "name_en": null, "name_ru": null, "sity_id": 11}, "geometry": null}, {"id": "28", "type": "Feature", "properties": {"name": "None", "name_hy": null, "name_en": null, "name_ru": null, "sity_id": 12}, "geometry": null}, {"id": "29", "type": "Feature", "properties": {"name": "None", "name_hy": null, "name_en": null, "name_ru": null, "sity_id": 13}, "geometry": null}]}